{"type": "FeatureCollection", "features": [ {"type": "Feature", "properties": {"norad_id": 33867, "name": "IRIDIUM 33 DEB", "group": "iridium-33-debris", "lat": -60.95867221973322, "lon": -179.81305070897514, "alt_km": 409.966114570796, "timestamp": "2025-12-05T22:40:48.934530+00:00", "meta": {"OBJECT_NAME": "IRIDIUM 33 DEB", "OBJECT_ID": "1997-051AL", "EPOCH": "2025-12-05T01:35:29.846688", "MEAN_MOTION": 15.56100475, "ECCENTRICITY": 0.00122174, "INCLINATION": 86.362, "RA_OF_ASC_NODE": 354.0558, "ARG_OF_PERICENTER": 95.245, "MEAN_ANOMALY": 265.0207, "EPHEMERIS_TYPE": 0, "CLASSIFICATION_TYPE": "U", "NORAD_CAT_ID": 33867, "ELEMENT_SET_NO": 999, "REV_AT_EPOCH": 89391, "BSTAR": 0.0092730334, "MEAN_MOTION_DOT": 0.00706258, "MEAN_MOTION_DDOT": 0}, "tle": {"line1": "1 33867U 97051AL  25339.06631767  .00706258  00000+0  92730-2 0  9997", "line2": "2 33867  86.3620 354.0558 0012217  95.2450 265.0207 15.56100475893918"}}, "geometry": {"type": "Point", "coordinates": [-179.81305070897514, -60.95867221973322]}}, {"type": "Feature", "properties": {"norad_id": 33870, "name": "IRIDIUM 33 DEB", "group": "iridium-33-debris", "lat": -81.90389853955664, "lon": -92.36636093908282, "alt_km": 739.9495610319545, "timestamp": "2025-12-05T22:40:48.934541+00:00", "meta": {"OBJECT_NAME": "IRIDIUM 33 DEB", "OBJECT_ID": "1997-051AP", "EPOCH": "2025-12-05T06:47:48.752160", "MEAN_MOTION": 14.45786148, "ECCENTRICITY": 0.0020687, "INCLINATION": 86.3756, "RA_OF_ASC_NODE": 61.4571, "ARG_OF_PERICENTER": 202.8532, "MEAN_ANOMALY": 217.2715, "EPHEMERIS_TYPE": 0, "CLASSIFICATION_TYPE": "U", "NORAD_CAT_ID": 33870, "ELEMENT_SET_NO": 999, "REV_AT_EPOCH": 88029, "BSTAR": 0.0017080794, "MEAN_MOTION_DOT": 6.091e-05, "MEAN_MOTION_DDOT": 0}, "tle": {"line1": "1 33870U 97051AP  25339.28320315  .00006091  00000+0  17081-2 0  9993", "line2": "2 33870  86.3756  61.4571 0020687 202.8532 217.2715 14.45786148880297"}}, "geometry": {"type": "Point", "coordinates": [-92.36636093908282, -81.90389853955664]}}, {"type": "Feature", "properties": {"norad_id": 33881, "name": "IRIDIUM 33 DEB", "group": "iridium-33-debris", "lat": -50.91929979858346, "lon": -65.84387489633113, "alt_km": 676.054325993764, "timestamp": "2025-12-05T22:40:48.934552+00:00", "meta": {"OBJECT_NAME": "IRIDIUM 33 DEB", "OBJECT_ID": "1997-051BA", "EPOCH": "2025-12-04T21:29:06.479232", "MEAN_MOTION": 14.56347168, "ECCENTRICITY": 0.0061211, "INCLINATION": 86.3869, "RA_OF_ASC_NODE": 110.1498, "ARG_OF_PERICENTER": 200.0978, "MEAN_ANOMALY": 290.0387, "EPHEMERIS_TYPE": 0, "CLASSIFICATION_TYPE": "U", "NORAD_CAT_ID": 33881, "ELEMENT_SET_NO": 999, "REV_AT_EPOCH": 87386, "BSTAR": 0.003828, "MEAN_MOTION_DOT": 0.0001745, "MEAN_MOTION_DDOT": 0}, "tle": {"line1": "1 33881U 97051BA  25338.89521388  .00017450  00000+0  38280-2 0  9999", "line2": "2 33881  86.3869 110.1498 0061211 200.0978 290.0387 14.56347168873862"}}, "geometry": {"type": "Point", "coordinates": [-65.84387489633113, -50.91929979858346]}}, {"type": "Feature", "properties": {"norad_id": 33884, "name": "IRIDIUM 33 DEB", "group": "iridium-33-debris", "lat": 27.883568832262114, "lon": 14.810807717906016, "alt_km": 631.2532079817702, "timestamp": "2025-12-05T22:40:48.934563+00:00", "meta": {"OBJECT_NAME": "IRIDIUM 33 DEB", "OBJECT_ID": "1997-051BD", "EPOCH": "2025-12-05T03:18:34.261920", "MEAN_MOTION": 14.77209591, "ECCENTRICITY": 0.0010445, "INCLINATION": 86.3693, "RA_OF_ASC_NODE": 13.2497, "ARG_OF_PERICENTER": 352.1232, "MEAN_ANOMALY": 66.4267, "EPHEMERIS_TYPE": 0, "CLASSIFICATION_TYPE": "U", "NORAD_CAT_ID": 33884, "ELEMENT_SET_NO": 999, "REV_AT_EPOCH": 88735, "BSTAR": 0.002774436, "MEAN_MOTION_DOT": 0.00019721, "MEAN_MOTION_DDOT": 0}, "tle": {"line1": "1 33884U 97051BD  25339.13789655  .00019721  00000+0  27744-2 0  9999", "line2": "2 33884  86.3693  13.2497 0010445 352.1232  66.4267 14.77209591887358"}}, "geometry": {"type": "Point", "coordinates": [14.810807717906016, 27.883568832262114]}}, {"type": "Feature", "properties": {"norad_id": 33886, "name": "IRIDIUM 33 DEB", "group": "iridium-33-debris", "lat": -61.77107256778602, "lon": -103.14544699479526, "alt_km": 771.1359187512762, "timestamp": "2025-12-05T22:40:48.934590+00:00", "meta": {"OBJECT_NAME": "IRIDIUM 33 DEB", "OBJECT_ID": "1997-051BF", "EPOCH": "2025-12-05T06:45:14.644800", "MEAN_MOTION": 14.36037798, "ECCENTRICITY": 0.00120662, "INCLINATION": 86.3832, "RA_OF_ASC_NODE": 70.3676, "ARG_OF_PERICENTER": 270.3653, "MEAN_ANOMALY": 143.1973, "EPHEMERIS_TYPE": 0, "CLASSIFICATION_TYPE": "U", "NORAD_CAT_ID": 33886, "ELEMENT_SET_NO": 999, "REV_AT_EPOCH": 87945, "BSTAR": 0.00038937053, "MEAN_MOTION_DOT": 1.152e-05, "MEAN_MOTION_DDOT": 0}, "tle": {"line1": "1 33886U 97051BF  25339.28141950  .00001152  00000+0  38937-3 0  9993", "line2": "2 33886  86.3832  70.3676 0012066 270.3653 143.1973 14.36037798879459"}}, "geometry": {"type": "Point", "coordinates": [-103.14544699479526, -61.77107256778602]}}, {"type": "Feature", "properties": {"norad_id": 33887, "name": "IRIDIUM 33 DEB", "group": "iridium-33-debris", "lat": 30.2474638512691, "lon": -175.8391337053688, "alt_km": 767.2542065275456, "timestamp": "2025-12-05T22:40:48.934602+00:00", "meta": {"OBJECT_NAME": "IRIDIUM 33 DEB", "OBJECT_ID": "1997-051BG", "EPOCH": "2025-12-05T02:10:58.097280", "MEAN_MOTION": 14.37210895, "ECCENTRICITY": 0.00040537, "INCLINATION": 86.3049, "RA_OF_ASC_NODE": 6.6883, "ARG_OF_PERICENTER": 263.1324, "MEAN_ANOMALY": 150.4166, "EPHEMERIS_TYPE": 0, "CLASSIFICATION_TYPE": "U", "NORAD_CAT_ID": 33887, "ELEMENT_SET_NO": 999, "REV_AT_EPOCH": 88055, "BSTAR": 0.00027532923, "MEAN_MOTION_DOT": 8.39e-06, "MEAN_MOTION_DDOT": 0}, "tle": {"line1": "1 33887U 97051BG  25339.09095020  .00000839  00000+0  27533-3 0  9990", "line2": "2 33887  86.3049   6.6883 0004053 263.1324 150.4166 14.37210895880554"}}, "geometry": {"type": "Point", "coordinates": [-175.8391337053688, 30.2474638512691]}}, {"type": "Feature", "properties": {"norad_id": 33953, "name": "IRIDIUM 33 DEB", "group": "iridium-33-debris", "lat": -75.36262458483306, "lon": 42.72180916242127, "alt_km": 728.4848806846103, "timestamp": "2025-12-05T22:40:48.934613+00:00", "meta": {"OBJECT_NAME": "IRIDIUM 33 DEB", "OBJECT_ID": "1997-051BN", "EPOCH": "2025-12-05T05:08:31.951680", "MEAN_MOTION": 14.55204828, "ECCENTRICITY": 0.00185403, "INCLINATION": 86.3853, "RA_OF_ASC_NODE": 57.0454, "ARG_OF_PERICENTER": 125.7223, "MEAN_ANOMALY": 292.6606, "EPHEMERIS_TYPE": 0, "CLASSIFICATION_TYPE": "U", "NORAD_CAT_ID": 33953, "ELEMENT_SET_NO": 999, "REV_AT_EPOCH": 88194, "BSTAR": 0.0025544132, "MEAN_MOTION_DOT": 0.00011099, "MEAN_MOTION_DDOT": 0}, "tle": {"line1": "1 33953U 97051BN  25339.21425870  .00011099  00000+0  25544-2 0  9997", "line2": "2 33953  86.3853  57.0454 0018540 125.7223 292.6606 14.55204828881943"}}, "geometry": {"type": "Point", "coordinates": [42.72180916242127, -75.36262458483306]}}, {"type": "Feature", "properties": {"norad_id": 33960, "name": "IRIDIUM 33 DEB", "group": "iridium-33-debris", "lat": 83.32481510357583, "lon": -33.23387677358939, "alt_km": 602.4581063836431, "timestamp": "2025-12-05T22:40:48.934625+00:00", "meta": {"OBJECT_NAME": "IRIDIUM 33 DEB", "OBJECT_ID": "1997-051BV", "EPOCH": "2025-12-04T20:40:23.161152", "MEAN_MOTION": 14.84544482, "ECCENTRICITY": 0.0007097, "INCLINATION": 86.2533, "RA_OF_ASC_NODE": 293.2261, "ARG_OF_PERICENTER": 73.4726, "MEAN_ANOMALY": 343.2851, "EPHEMERIS_TYPE": 0, "CLASSIFICATION_TYPE": "U", "NORAD_CAT_ID": 33960, "ELEMENT_SET_NO": 999, "REV_AT_EPOCH": 88750, "BSTAR": 0.00599, "MEAN_MOTION_DOT": 0.00050871, "MEAN_MOTION_DDOT": 0}, "tle": {"line1": "1 33960U 97051BV  25338.86137918  .00050871  00000+0  59900-2 0  9992", "line2": "2 33960  86.2533 293.2261 0007097  73.4726 343.2851 14.84544482887505"}}, "geometry": {"type": "Point", "coordinates": [-33.23387677358939, 83.32481510357583]}}, {"type": "Feature", "properties": {"norad_id": 33966, "name": "IRIDIUM 33 DEB", "group": "iridium-33-debris", "lat": -9.470389425823534, "lon": -130.45383560180633, "alt_km": 727.0403379208383, "timestamp": "2025-12-05T22:40:48.934636+00:00", "meta": {"OBJECT_NAME": "IRIDIUM 33 DEB", "OBJECT_ID": "1997-051CB", "EPOCH": "2025-12-05T05:29:23.839296", "MEAN_MOTION": 14.49544944, "ECCENTRICITY": 0.0006567, "INCLINATION": 86.3933, "RA_OF_ASC_NODE": 49.2505, "ARG_OF_PERICENTER": 214.8574, "MEAN_ANOMALY": 199.2103, "EPHEMERIS_TYPE": 0, "CLASSIFICATION_TYPE": "U", "NORAD_CAT_ID": 33966, "ELEMENT_SET_NO": 999, "REV_AT_EPOCH": 88333, "BSTAR": 0.0011929971, "MEAN_MOTION_DOT": 4.595e-05, "MEAN_MOTION_DDOT": 0}, "tle": {"line1": "1 33966U 97051CB  25339.22874814  .00004595  00000+0  11930-2 0  9995", "line2": "2 33966  86.3933  49.2505 0006567 214.8574 199.2103 14.49544944883339"}}, "geometry": {"type": "Point", "coordinates": [-130.45383560180633, -9.470389425823534]}}, {"type": "Feature", "properties": {"norad_id": 34071, "name": "IRIDIUM 33 DEB", "group": "iridium-33-debris", "lat": -78.48736847395166, "lon": -140.93430932005668, "alt_km": 739.6640864440924, "timestamp": "2025-12-05T22:40:48.934647+00:00", "meta": {"OBJECT_NAME": "IRIDIUM 33 DEB", "OBJECT_ID": "1997-051CE", "EPOCH": "2025-12-05T03:15:48.271968", "MEAN_MOTION": 14.49413279, "ECCENTRICITY": 0.00095852, "INCLINATION": 86.3462, "RA_OF_ASC_NODE": 21.1335, "ARG_OF_PERICENTER": 128.1899, "MEAN_ANOMALY": 232.017, "EPHEMERIS_TYPE": 0, "CLASSIFICATION_TYPE": "U", "NORAD_CAT_ID": 34071, "ELEMENT_SET_NO": 999, "REV_AT_EPOCH": 88224, "BSTAR": 0.001361503, "MEAN_MOTION_DOT": 5.229e-05, "MEAN_MOTION_DDOT": 0}, "tle": {"line1": "1 34071U 97051CE  25339.13597537  .00005229  00000+0  13615-2 0  9994", "line2": "2 34071  86.3462  21.1335 0009585 128.1899 232.0170 14.49413279882249"}}, "geometry": {"type": "Point", "coordinates": [-140.93430932005668, -78.48736847395166]}}]}